{"fetched_at":"2026-07-23T07:05:22.094Z","source":"https://celestrak.org/NORAD/elements/gp.php?GROUP=qianfan&FORMAT=JSON","constellation":"qianfan","records":[{"OBJECT_NAME":"QIANFAN-209","OBJECT_ID":"2026-153J","EPOCH":"2026-07-22T20:19:44.249952","CLASSIFICATION_TYPE":"U","MEAN_MOTION":14.19691527,"ECCENTRICITY":0.00085057,"INCLINATION":88.993,"RA_OF_ASC_NODE":358.1706,"ARG_OF_PERICENTER":152.6574,"MEAN_ANOMALY":207.5065,"EPHEMERIS_TYPE":0,"NORAD_CAT_ID":69808,"ELEMENT_SET_NO":999,"REV_AT_EPOCH":263,"BSTAR":0.000065671924,"MEAN_MOTION_DOT":0.00000153,"MEAN_MOTION_DDOT":0},{"OBJECT_NAME":"QIANFAN-210","OBJECT_ID":"2026-153K","EPOCH":"2026-07-22T20:12:15.775200","CLASSIFICATION_TYPE":"U","MEAN_MOTION":14.19937659,"ECCENTRICITY":0.00086675,"INCLINATION":88.9931,"RA_OF_ASC_NODE":358.1699,"ARG_OF_PERICENTER":154.8725,"MEAN_ANOMALY":205.2888,"EPHEMERIS_TYPE":0,"NORAD_CAT_ID":69809,"ELEMENT_SET_NO":999,"REV_AT_EPOCH":263,"BSTAR":0.000084214525,"MEAN_MOTION_DOT":0.00000193,"MEAN_MOTION_DDOT":0},{"OBJECT_NAME":"QIANFAN-211","OBJECT_ID":"2026-153L","EPOCH":"2026-07-22T20:10:48.920736","CLASSIFICATION_TYPE":"U","MEAN_MOTION":14.20224482,"ECCENTRICITY":0.00080628,"INCLINATION":88.993,"RA_OF_ASC_NODE":358.1695,"ARG_OF_PERICENTER":153.5012,"MEAN_ANOMALY":206.6592,"EPHEMERIS_TYPE":0,"NORAD_CAT_ID":69810,"ELEMENT_SET_NO":999,"REV_AT_EPOCH":263,"BSTAR":0.000058396966,"MEAN_MOTION_DOT":0.00000139,"MEAN_MOTION_DDOT":0},{"OBJECT_NAME":"QIANFAN-212","OBJECT_ID":"2026-153M","EPOCH":"2026-07-22T21:42:40.826880","CLASSIFICATION_TYPE":"U","MEAN_MOTION":14.20820167,"ECCENTRICITY":0.00092085,"INCLINATION":88.9931,"RA_OF_ASC_NODE":358.1604,"ARG_OF_PERICENTER":158.1352,"MEAN_ANOMALY":202.0234,"EPHEMERIS_TYPE":0,"NORAD_CAT_ID":69811,"ELEMENT_SET_NO":999,"REV_AT_EPOCH":264,"BSTAR":0.000037886074,"MEAN_MOTION_DOT":9.6e-7,"MEAN_MOTION_DDOT":0},{"OBJECT_NAME":"QIANFAN-213","OBJECT_ID":"2026-153N","EPOCH":"2026-07-22T21:40:18.050016","CLASSIFICATION_TYPE":"U","MEAN_MOTION":14.21099555,"ECCENTRICITY":0.00081381,"INCLINATION":88.993,"RA_OF_ASC_NODE":358.16,"ARG_OF_PERICENTER":153.6527,"MEAN_ANOMALY":206.5079,"EPHEMERIS_TYPE":0,"NORAD_CAT_ID":69812,"ELEMENT_SET_NO":999,"REV_AT_EPOCH":264,"BSTAR":0.000037740395,"MEAN_MOTION_DOT":9.6e-7,"MEAN_MOTION_DDOT":0},{"OBJECT_NAME":"QIANFAN-214","OBJECT_ID":"2026-153P","EPOCH":"2026-07-22T21:23:58.032960","CLASSIFICATION_TYPE":"U","MEAN_MOTION":14.25492692,"ECCENTRICITY":0.00087956,"INCLINATION":88.993,"RA_OF_ASC_NODE":358.1585,"ARG_OF_PERICENTER":158.7634,"MEAN_ANOMALY":201.3926,"EPHEMERIS_TYPE":0,"NORAD_CAT_ID":69813,"ELEMENT_SET_NO":999,"REV_AT_EPOCH":264,"BSTAR":0.000066021866,"MEAN_MOTION_DOT":0.00000171,"MEAN_MOTION_DDOT":0},{"OBJECT_NAME":"QIANFAN-215","OBJECT_ID":"2026-153Q","EPOCH":"2026-07-22T21:19:28.551360","CLASSIFICATION_TYPE":"U","MEAN_MOTION":14.26680613,"ECCENTRICITY":0.000882,"INCLINATION":88.9929,"RA_OF_ASC_NODE":358.1577,"ARG_OF_PERICENTER":160.5747,"MEAN_ANOMALY":199.5785,"EPHEMERIS_TYPE":0,"NORAD_CAT_ID":69814,"ELEMENT_SET_NO":999,"REV_AT_EPOCH":264,"BSTAR":0.000053490682,"MEAN_MOTION_DOT":0.00000144,"MEAN_MOTION_DDOT":0},{"OBJECT_NAME":"QIANFAN-216","OBJECT_ID":"2026-153R","EPOCH":"2026-07-22T21:19:27.585408","CLASSIFICATION_TYPE":"U","MEAN_MOTION":14.26677669,"ECCENTRICITY":0.00090458,"INCLINATION":88.993,"RA_OF_ASC_NODE":358.158,"ARG_OF_PERICENTER":160.9088,"MEAN_ANOMALY":199.2447,"EPHEMERIS_TYPE":0,"NORAD_CAT_ID":69815,"ELEMENT_SET_NO":999,"REV_AT_EPOCH":264,"BSTAR":0.000084293283,"MEAN_MOTION_DOT":0.00000218,"MEAN_MOTION_DDOT":0},{"OBJECT_NAME":"QIANFAN-217","OBJECT_ID":"2026-153S","EPOCH":"2026-07-22T21:18:23.193216","CLASSIFICATION_TYPE":"U","MEAN_MOTION":14.2676884,"ECCENTRICITY":0.0008556,"INCLINATION":88.9929,"RA_OF_ASC_NODE":358.1577,"ARG_OF_PERICENTER":158.4016,"MEAN_ANOMALY":201.754,"EPHEMERIS_TYPE":0,"NORAD_CAT_ID":69816,"ELEMENT_SET_NO":999,"REV_AT_EPOCH":264,"BSTAR":0.0000391882,"MEAN_MOTION_DOT":0.0000011,"MEAN_MOTION_DDOT":0},{"OBJECT_NAME":"QIANFAN-218","OBJECT_ID":"2026-153T","EPOCH":"2026-07-22T21:17:36.024000","CLASSIFICATION_TYPE":"U","MEAN_MOTION":14.26812733,"ECCENTRICITY":0.00083197,"INCLINATION":88.9932,"RA_OF_ASC_NODE":358.1582,"ARG_OF_PERICENTER":155.9432,"MEAN_ANOMALY":204.2152,"EPHEMERIS_TYPE":0,"NORAD_CAT_ID":69817,"ELEMENT_SET_NO":999,"REV_AT_EPOCH":264,"BSTAR":0.000072042079,"MEAN_MOTION_DOT":0.00000189,"MEAN_MOTION_DDOT":0},{"OBJECT_NAME":"QIANFAN-219","OBJECT_ID":"2026-155A","EPOCH":"2026-07-22T20:59:21.137280","CLASSIFICATION_TYPE":"U","MEAN_MOTION":14.2374235,"ECCENTRICITY":0.00311263,"INCLINATION":89.0061,"RA_OF_ASC_NODE":60.0725,"ARG_OF_PERICENTER":195.8506,"MEAN_ANOMALY":164.1715,"EPHEMERIS_TYPE":0,"NORAD_CAT_ID":69848,"ELEMENT_SET_NO":999,"REV_AT_EPOCH":247,"BSTAR":0.000065687679,"MEAN_MOTION_DOT":0.00000165,"MEAN_MOTION_DDOT":0},{"OBJECT_NAME":"QIANFAN-220","OBJECT_ID":"2026-155B","EPOCH":"2026-07-22T20:21:16.029216","CLASSIFICATION_TYPE":"U","MEAN_MOTION":14.17599204,"ECCENTRICITY":0.00301875,"INCLINATION":89.0061,"RA_OF_ASC_NODE":60.0869,"ARG_OF_PERICENTER":196.5294,"MEAN_ANOMALY":163.4914,"EPHEMERIS_TYPE":0,"NORAD_CAT_ID":69849,"ELEMENT_SET_NO":999,"REV_AT_EPOCH":246,"BSTAR":0.000078301008,"MEAN_MOTION_DOT":0.00000174,"MEAN_MOTION_DDOT":0},{"OBJECT_NAME":"QIANFAN-221","OBJECT_ID":"2026-155C","EPOCH":"2026-07-22T20:50:45.846816","CLASSIFICATION_TYPE":"U","MEAN_MOTION":14.26649654,"ECCENTRICITY":0.00311941,"INCLINATION":89.0061,"RA_OF_ASC_NODE":60.0716,"ARG_OF_PERICENTER":197.3421,"MEAN_ANOMALY":162.671,"EPHEMERIS_TYPE":0,"NORAD_CAT_ID":69850,"ELEMENT_SET_NO":999,"REV_AT_EPOCH":247,"BSTAR":0.000086200298,"MEAN_MOTION_DOT":0.00000224,"MEAN_MOTION_DDOT":0},{"OBJECT_NAME":"QIANFAN-222","OBJECT_ID":"2026-155D","EPOCH":"2026-07-22T20:08:18.058560","CLASSIFICATION_TYPE":"U","MEAN_MOTION":14.18563726,"ECCENTRICITY":0.00293701,"INCLINATION":89.0062,"RA_OF_ASC_NODE":60.0858,"ARG_OF_PERICENTER":197.6911,"MEAN_ANOMALY":162.3258,"EPHEMERIS_TYPE":0,"NORAD_CAT_ID":69851,"ELEMENT_SET_NO":999,"REV_AT_EPOCH":246,"BSTAR":0.000092317766,"MEAN_MOTION_DOT":0.00000206,"MEAN_MOTION_DDOT":0},{"OBJECT_NAME":"QIANFAN-223","OBJECT_ID":"2026-155E","EPOCH":"2026-07-22T20:00:11.845152","CLASSIFICATION_TYPE":"U","MEAN_MOTION":14.18586233,"ECCENTRICITY":0.00292568,"INCLINATION":89.0064,"RA_OF_ASC_NODE":60.0853,"ARG_OF_PERICENTER":197.1762,"MEAN_ANOMALY":162.8441,"EPHEMERIS_TYPE":0,"NORAD_CAT_ID":69852,"ELEMENT_SET_NO":999,"REV_AT_EPOCH":246,"BSTAR":0.000084106582,"MEAN_MOTION_DOT":0.00000189,"MEAN_MOTION_DDOT":0},{"OBJECT_NAME":"QIANFAN-224","OBJECT_ID":"2026-155F","EPOCH":"2026-07-22T21:33:36.025632","CLASSIFICATION_TYPE":"U","MEAN_MOTION":14.20220731,"ECCENTRICITY":0.00302971,"INCLINATION":89.0049,"RA_OF_ASC_NODE":60.0743,"ARG_OF_PERICENTER":197.3476,"MEAN_ANOMALY":162.6682,"EPHEMERIS_TYPE":0,"NORAD_CAT_ID":69853,"ELEMENT_SET_NO":999,"REV_AT_EPOCH":247,"BSTAR":0.000087819535,"MEAN_MOTION_DOT":0.00000203,"MEAN_MOTION_DDOT":0}]}
