QIANFAN-209             
1 69808U 26153J   26203.84703993  .00000153  00000+0  65672-4 0  9992
2 69808  88.9930 358.1706 0008505 152.6574 207.5065 14.19691527  2639
QIANFAN-210             
1 69809U 26153K   26203.84184925  .00000193  00000+0  84215-4 0  9999
2 69809  88.9931 358.1699 0008667 154.8725 205.2888 14.19937659  2630
QIANFAN-211             
1 69810U 26153L   26203.84084399  .00000139  00000+0  58397-4 0  9997
2 69810  88.9930 358.1695 0008062 153.5012 206.6592 14.20224482  2633
QIANFAN-212             
1 69811U 26153M   26203.90463920  .00000096  00000+0  37886-4 0  9998
2 69811  88.9931 358.1604 0009208 158.1352 202.0234 14.20820167  2642
QIANFAN-213             
1 69812U 26153N   26203.90298669  .00000096  00000+0  37740-4 0  9994
2 69812  88.9930 358.1600 0008138 153.6527 206.5079 14.21099555  2649
QIANFAN-214             
1 69813U 26153P   26203.89164390  .00000171  00000+0  66022-4 0  9995
2 69813  88.9930 358.1585 0008795 158.7634 201.3926 14.25492692  2643
QIANFAN-215             
1 69814U 26153Q   26203.88852490  .00000144  00000+0  53491-4 0  9996
2 69814  88.9929 358.1577 0008820 160.5747 199.5785 14.26680613  2642
QIANFAN-216             
1 69815U 26153R   26203.88851372  .00000218  00000+0  84293-4 0  9991
2 69815  88.9930 358.1580 0009045 160.9088 199.2447 14.26677669  2640
QIANFAN-217             
1 69816U 26153S   26203.88776844  .00000110  00000+0  39188-4 0  9996
2 69816  88.9929 358.1577 0008556 158.4016 201.7540 14.26768840  2649
QIANFAN-218             
1 69817U 26153T   26203.88722250  .00000189  00000+0  72042-4 0  9991
2 69817  88.9932 358.1582 0008319 155.9432 204.2152 14.26812733  2649
QIANFAN-219             
1 69848U 26155A   26203.87455020  .00000165  00000+0  65688-4 0  9996
2 69848  89.0061  60.0725 0031126 195.8506 164.1715 14.23742350  2477
QIANFAN-220             
1 69849U 26155B   26203.84810219  .00000174  00000+0  78301-4 0  9995
2 69849  89.0061  60.0869 0030187 196.5294 163.4914 14.17599204  2468
QIANFAN-221             
1 69850U 26155C   26203.86858619  .00000224  00000+0  86200-4 0  9998
2 69850  89.0061  60.0716 0031194 197.3421 162.6710 14.26649654  2472
QIANFAN-222             
1 69851U 26155D   26203.83909790  .00000206  00000+0  92318-4 0  9990
2 69851  89.0062  60.0858 0029370 197.6911 162.3258 14.18563726  2460
QIANFAN-223             
1 69852U 26155E   26203.83347043  .00000189  00000+0  84107-4 0  9995
2 69852  89.0064  60.0853 0029256 197.1762 162.8441 14.18586233  2467
QIANFAN-224             
1 69853U 26155F   26203.89833363  .00000203  00000+0  87820-4 0  9999
2 69853  89.0049  60.0743 0030297 197.3476 162.6682 14.20220731  2477
